[Satellite]
VERSION=1.1
NAME=CZ-6A DEB
NICKNAME=CZ-6A DEB
TLE1=1 54352U 22151CX  22342.25024660  .00006013  00000+0  14751-2 0  9997
TLE2=2 54352  99.1004 350.0730 0202064 235.8657 122.3220 14.41167735  3220
STATUS=0
